NORAD_CAT_ID,OBJECT_NAME,OBJECT_TYPE,EPOCH,MEAN_MOTION,ECCENTRICITY,INCLINATION,RA_OF_ASC_NODE,ARG_OF_PERICENTER,MEAN_ANOMALY,BSTAR,MEAN_MOTION_DOT,MEAN_MOTION_DDOT,TLE_LINE0,TLE_LINE1,TLE_LINE2,SEMIMAJOR_AXIS,PERIOD,APOGEE,PERIGEE,DECAYED
52857.0,STARLINK-4199,PAYLOAD,2022-09-21 22:00:00,15.08820257,0.0001539,53.2129,301.9037,53.2391,74.6173,0.0020136,0.00031887,0.0,0 STARLINK-4199,1 52857U 22062AD  22264.91667824  .00031887  00000-0  20136-2 0  9999,2 52857  53.2129 301.9037 0001539  53.2391  74.6173 15.08820257  1305,6917.941,95.439,540.87,538.741,0.0
52857.0,STARLINK-4199,PAYLOAD,2022-09-22 06:00:00,15.08857344,0.0001653,53.2129,300.4079,53.7989,85.6373,-0.0016369,-0.00026257,0.0,0 STARLINK-4199,1 52857U 22062AD  22265.25001157 -.00026257  00000-0 -16369-2 0  9998,2 52857  53.2129 300.4079 0001653  53.7989  85.6373 15.08857344 15531,6917.8269999999975,95.436,540.836,538.549,0.0
52857.0,STARLINK-4199,PAYLOAD,2022-09-22 14:00:01,15.08830036,0.0001761,53.2126,298.9124,46.6975,104.3455,0.0022308,0.00035384,0.0,0 STARLINK-4199,1 52857U 22062AD  22265.58334491  .00035384  00000-0  22308-2 0  9993,2 52857  53.2126 298.9124 0001761  46.6975 104.3455 15.08830036  1305,6917.911,95.438,540.994,538.558,0.0
52857.0,STARLINK-4199,PAYLOAD,2022-09-22 22:00:00,15.08829244,0.0001559,53.2127,297.4141,50.6667,111.9855,7.5128e-05,9.08e-06,0.0,0 STARLINK-4199,1 52857U 22062AD  22265.91667824  .00000908  00000-0  75128-4 0  9993,2 52857  53.2127 297.4141 0001559  50.6667 111.9855 15.08829244  1304,6917.913000000001,95.438,540.857,538.7,0.0
52857.0,STARLINK-4199,PAYLOAD,2022-09-23 06:00:00,15.08836604,0.000174,53.2165,295.9155,49.3872,124.857,-3.9318e-05,-9.14e-06,0.0,0 STARLINK-4199,1 52857U 22062AD  22266.25001157 -.00000914  00000-0 -39318-4 0  9992,2 52857  53.2165 295.9155 0001740  49.3872 124.8570 15.08836604 15680,6917.891,95.438,540.9590000000002,538.552,0.0
52857.0,STARLINK-4199,PAYLOAD,2022-09-23 14:00:01,15.08822217,0.0001789,53.2125,294.4228,44.4057,141.4169,0.0022429,0.00035571,0.0,0 STARLINK-4199,1 52857U 22062AD  22266.58334491  .00035571  00000-0  22429-2 0  9996,2 52857  53.2125 294.4228 0001789  44.4057 141.4169 15.08822217  1303,6917.935,95.439,541.0369999999998,538.562,0.0
52857.0,STARLINK-4199,PAYLOAD,2022-09-23 22:00:00,15.08821708,0.0001636,53.2127,292.9244,49.7433,147.6766,0.0026721999999999,0.00042475,0.0,0 STARLINK-4199,1 52857U 22062AD  22266.91667824  .00042475  00000-0  26722-2 0  9993,2 52857  53.2127 292.9244 0001636  49.7433 147.6766 15.08821708  1308,6917.936,95.439,540.933,538.67,0.0
52857.0,STARLINK-4199,PAYLOAD,2022-09-24 14:00:01,15.08861857,0.000183,53.2126,289.9329,44.1642,176.5258,-0.0011665,-0.00018816,0.0,0 STARLINK-4199,1 52857U 22062AD  22267.58335648 -.00018816  00000-0 -11665-2 0  9997,2 52857  53.2126 289.9329 0001830  44.1642 176.5258 15.08861857  1300,6917.814,95.436,540.945,538.413,0.0
52857.0,STARLINK-4199,PAYLOAD,2022-09-24 22:00:00,15.08819814,0.0001612,53.2128,288.4346,47.7743,184.4759,0.0025291999999999,0.00040172,0.0,0 STARLINK-4199,1 52857U 22062AD  22267.91667824  .00040172  00000-0  25292-2 0  9997,2 52857  53.2128 288.4346 0001612  47.7743 184.4759 15.08819814  1304,6917.941999999999,95.439,540.922,538.692,0.0
52857.0,STARLINK-4199,PAYLOAD,2022-09-25 14:00:01,15.08828915,0.0001751999999999,53.2129,285.4431,40.9384,214.4959,0.00091158,0.00014245,0.0,0 STARLINK-4199,1 52857U 22062AD  22268.58334491  .00014245  00000-0  91158-3 0  9999,2 52857  53.2129 285.4431 0001752  40.9384 214.4959 15.08828915  1306,6917.9140000000025,95.438,540.991,538.567,0.0
52857.0,STARLINK-4199,PAYLOAD,2022-09-25 22:00:01,15.08810632,0.0001588,53.2132,283.9445,47.6202,219.4636,0.0030319,0.00048257,0.0,0 STARLINK-4199,1 52857U 22062AD  22268.91668981  .00048257  00000-0  30319-2 0  9991,2 52857  53.2132 283.9445 0001588  47.6202 219.4636 15.08810632 16083,6917.97,95.439,540.934,538.737,0.0
52857.0,STARLINK-4199,PAYLOAD,2022-09-26 00:00:00,15.08826002,0.0001595999999999,53.2136,283.5701,49.6657,310.2458,0.0016129,0.00025465,0.0,0 STARLINK-4199,1 52857U 22062AD  22269.00001157  .00025465  00000-0  16129-2 0  9997,2 52857  53.2136 283.5701 0001596  49.6657 310.2458 15.08826002  1302,6917.9230000000025,95.438,540.8919999999998,538.684,0.0
52857.0,STARLINK-4199,PAYLOAD,2022-09-26 10:00:00,15.08804283,0.0001875999999999,53.213,281.7017,45.6282,58.7759,0.0013248,0.00020839,0.0,0 STARLINK-4199,1 52857U 22062AD  22269.41667824  .00020839  00000-0  13248-2 0  9990,2 52857  53.2130 281.7017 0001876  45.6282  58.7759 15.08804283 16151,6917.99,95.44,541.1519999999998,538.557,0.0
52857.0,STARLINK-4199,PAYLOAD,2022-09-26 14:00:01,15.08821393,0.0001847,53.2128,280.9531,44.4601,245.7206,-8.6098e-06,-4.25e-06,0.0,0 STARLINK-4199,1 52857U 22062AD  22269.58334491 -.00000425  00000-0 -86098-5 0  9996,2 52857  53.2128 280.9531 0001847  44.4601 245.7206 15.08821393  1307,6917.937,95.439,541.08,538.525,0.0
52857.0,STARLINK-4199,PAYLOAD,2022-09-27 00:00:00,15.08813454,0.0001699999999999,53.2142,279.0808,52.7752,341.874,0.0022499,0.00035675,0.0,0 STARLINK-4199,1 52857U 22062AD  22270.00001157  .00035675  00000-0  22499-2 0  9990,2 52857  53.2142 279.0808 0001700  52.7752 341.8740 15.08813454  1306,6917.962,95.439,541.003,538.65,0.0
52857.0,STARLINK-4199,PAYLOAD,2022-09-27 14:00:01,15.08846739,0.0001849,53.2143,276.4634,46.4618,278.4547,-0.00028369,-4.801e-05,0.0,0 STARLINK-4199,1 52857U 22062AD  22270.58334491 -.00004801  00000-0 -28369-3 0  9995,2 52857  53.2143 276.4634 0001849  46.4618 278.4547 15.08846739 16331,6917.86,95.437,541.004,538.446,0.0
52857.0,STARLINK-4199,PAYLOAD,2022-09-27 22:00:01,15.08823362,0.0001706999999999,53.2144,274.9653,54.2211,282.3671,0.0035292,0.00056303,0.0,0 STARLINK-4199,1 52857U 22062AD  22270.91668981  .00056303  00000-0  35292-2 0  9990,2 52857  53.2144 274.9653 0001707  54.2211 282.3671 15.08823362  1305,6917.931,95.439,540.977,538.615,0.0
52857.0,STARLINK-4199,PAYLOAD,2022-09-28 14:00:01,15.08887116,0.0001786999999999,53.214,271.9737,46.1674,313.5735,-0.0050758999999999,-0.00080276,0.0,0 STARLINK-4199,1 52857U 22062AD  22271.58334491 -.00080276  00000-0 -50759-2 0  9993,2 52857  53.2140 271.9737 0001787  46.1674 313.5735 15.08887116  1307,6917.736,95.435,540.8380000000002,538.365,0.0
52857.0,STARLINK-4199,PAYLOAD,2022-09-28 22:00:00,15.08811772,0.0001633,53.2142,270.4757,53.0135,318.3259,0.0032551999999999,0.0005186,0.0,0 STARLINK-4199,1 52857U 22062AD  22271.91667824  .00051860  00000-0  32552-2 0  9995,2 52857  53.2142 270.4757 0001633  53.0135 318.3259 15.08811772  1303,6917.967,95.439,540.961,538.702,0.0
52857.0,STARLINK-4199,PAYLOAD,2022-09-29 06:00:00,15.08848043,0.0001814,53.2142,268.9809,49.1735,333.75,-0.000834,-0.0001354,0.0,0 STARLINK-4199,1 52857U 22062AD  22272.25001157 -.00013540  00000-0 -83400-3 0  9998,2 52857  53.2142 268.9809 0001814  49.1735 333.7500 15.08848043 16583,6917.856,95.437,540.976,538.466,0.0
52857.0,STARLINK-4199,PAYLOAD,2022-09-29 14:00:01,15.08859942,0.0001831,53.2141,267.4841,47.0079,347.5088,-0.00099122,-0.00016038,0.0,0 STARLINK-4199,1 52857U 22062AD  22272.58334491 -.00016038  00000-0 -99122-3 0  9997,2 52857  53.2141 267.4841 0001831  47.0079 347.5088 15.08859942  1307,6917.819,95.436,540.951,538.418,0.0
52857.0,STARLINK-4199,PAYLOAD,2022-09-29 22:00:00,15.08849407,0.0001779,53.2142,265.9862,55.1293,351.0036,-0.00026394,-4.487e-05,0.0,0 STARLINK-4199,1 52857U 22062AD  22272.91667824 -.00004487  00000-0 -26394-3 0  9999,2 52857  53.2142 265.9862 0001779  55.1293 351.0036 15.08849407 16688,6917.852,95.437,540.947,538.486,0.0
52857.0,STARLINK-4199,PAYLOAD,2022-09-30 14:00:01,15.08865477,0.0001972,53.2144,262.9946,50.2976,19.0261,-0.0027601999999999,-0.0004397999999999,0.0,0 STARLINK-4199,1 52857U 22062AD  22273.58334491 -.00043980  00000-0 -27602-2 0  9997,2 52857  53.2144 262.9946 0001972  50.2976  19.0261 15.08865477  1308,6917.803000000001,95.436,541.0319999999998,538.303,0.0
52857.0,STARLINK-4199,PAYLOAD,2022-09-30 22:00:00,15.0881712,0.0001841,53.2146,261.4968,56.2733,24.6648,0.0025244,0.00040092,0.0,0 STARLINK-4199,1 52857U 22062AD  22273.91667824  .00040092  00000-0  25244-2 0  9992,2 52857  53.2146 261.4968 0001841  56.2733  24.6648 15.08817120  1303,6917.95,95.439,541.089,538.5419999999998,0.0
52857.0,STARLINK-4199,PAYLOAD,2022-10-01 06:00:00,15.08840764,0.0002005,53.2147,260.0022,51.8458,40.677,-0.0001656,-2.923e-05,0.0,0 STARLINK-4199,1 52857U 22062AD  22274.25001157 -.00002923  00000-0 -16560-3 0  9996,2 52857  53.2147 260.0022 0002005  51.8458  40.6770 15.08840764 16881,6917.878000000002,95.438,541.13,538.356,0.0
52857.0,STARLINK-4199,PAYLOAD,2022-10-01 14:00:01,15.08876003,0.0001936,53.2148,258.5053,49.6819,54.429,-0.0040973999999999,-0.00064976,0.0,0 STARLINK-4199,1 52857U 22062AD  22274.58334491 -.00064976  00000-0 -40974-2 0  9993,2 52857  53.2148 258.5053 0001936  49.6819  54.4290 15.08876003  1302,6917.77,95.435,540.975,538.2959999999998,0.0
52857.0,STARLINK-4199,PAYLOAD,2022-10-01 22:00:00,15.08828001,0.000176,53.215,257.0076,54.1882,61.5362,-0.00052209,-8.585e-05,0.0,0 STARLINK-4199,1 52857U 22062AD  22274.91667824 -.00008585  00000-0 -52209-3 0  9998,2 52857  53.2150 257.0076 0001760  54.1882  61.5362 15.08828001  1304,6917.917,95.438,541.0,538.565,0.0
52857.0,STARLINK-4199,PAYLOAD,2022-10-02 14:00:01,15.08841183,0.0001844999999999,53.215,254.0162,48.57100000000001,90.295,-0.0011734,-0.00018915,0.0,0 STARLINK-4199,1 52857U 22062AD  22275.58334491 -.00018915  00000-0 -11734-2 0  9998,2 52857  53.2150 254.0162 0001845  48.5710  90.2950 15.08841183 17099,6917.877,95.437,541.018,538.465,0.0
52857.0,STARLINK-4199,PAYLOAD,2022-10-02 22:00:00,15.08832629,0.000175,53.2153,252.5187,55.3256,95.1308,0.0025353999999999,0.00040286,0.0,0 STARLINK-4199,1 52857U 22062AD  22275.91667824  .00040286  00000-0  25354-2 0  9991,2 52857  53.2153 252.5187 0001750  55.3256  95.1308 15.08832629  1301,6917.903,95.438,540.979,538.557,0.0
